ORBCOMM FM115           
1 41186U 15081H   24133.07271226  .00004173  00000+0  88311-3 0  9993
2 41186  46.9964 144.6497 0001085 323.3837  36.6975 14.60674390449090
ORBCOMM FM108           
1 41187U 15081J   24133.53538567  .00003933  00000+0  91075-3 0  9993
2 41187  47.0028 196.8223 0003640 269.6650  90.3818 14.56597934448358
ORBCOMM FM117           
1 41188U 15081K   24133.56979763  .00003941  00000+0  91296-3 0  9998
2 41188  46.9988 195.5528 0004097 280.2914  79.7509 14.56573838448406
ORBCOMM FM116           
1 41189U 15081L   24133.55905425  .00004499  00000+0  10362-2 0  9995
2 41189  47.0009 285.4221 0001553 355.8702   4.2170 14.56599883447213
